[{"OBJECT_NAME":"HIBARI","OBJECT_ID":"2021-102F","EPOCH":"2026-03-09T16:55:51.090816","MEAN_MOTION":15.29554512,"ECCENTRICITY":0.00120742,"INCLINATION":97.3381,"RA_OF_ASC_NODE":115.826,"ARG_OF_PERICENTER":186.5211,"MEAN_ANOMALY":173.5875,"EPHEMERIS_TYPE":0,"CLASSIFICATION_TYPE":"U","NORAD_CAT_ID":49400,"ELEMENT_SET_NO":999,"REV_AT_EPOCH":23897,"BSTAR":0.00042758039,"MEAN_MOTION_DOT":0.00012206,"MEAN_MOTION_DDOT":0},{"OBJECT_NAME":"STARLINK-32133","OBJECT_ID":"2024-136E","EPOCH":"2026-03-09T21:38:05.379360","MEAN_MOTION":15.30195197,"ECCENTRICITY":0.00012385,"INCLINATION":53.1606,"RA_OF_ASC_NODE":74.9208,"ARG_OF_PERICENTER":86.9167,"MEAN_ANOMALY":273.1976,"EPHEMERIS_TYPE":0,"CLASSIFICATION_TYPE":"U","NORAD_CAT_ID":60333,"ELEMENT_SET_NO":999,"REV_AT_EPOCH":8969,"BSTAR":2.8447884e-5,"MEAN_MOTION_DOT":4.83e-6,"MEAN_MOTION_DDOT":0}]
